[{"OBJECT_NAME":"STARLINK-5049","OBJECT_ID":"2023-094AE","EPOCH":"2026-03-09T22:00:01.999584","MEAN_MOTION":15.06402427,"ECCENTRICITY":0.00021185,"INCLINATION":43.0015,"RA_OF_ASC_NODE":16.0734,"ARG_OF_PERICENTER":260.7363,"MEAN_ANOMALY":122.1904,"EPHEMERIS_TYPE":0,"CLASSIFICATION_TYPE":"U","NORAD_CAT_ID":57246,"ELEMENT_SET_NO":999,"REV_AT_EPOCH":578,"BSTAR":0.0021417871,"MEAN_MOTION_DOT":0.00032025,"MEAN_MOTION_DDOT":0},{"OBJECT_NAME":"SEDNA-2","OBJECT_ID":"2025-009DQ","EPOCH":"2026-03-09T19:10:28.282944","MEAN_MOTION":15.10492622,"ECCENTRICITY":0.0010309,"INCLINATION":97.4615,"RA_OF_ASC_NODE":144.8075,"ARG_OF_PERICENTER":53.026,"MEAN_ANOMALY":307.1912,"EPHEMERIS_TYPE":0,"CLASSIFICATION_TYPE":"U","NORAD_CAT_ID":63153,"ELEMENT_SET_NO":999,"REV_AT_EPOCH":6311,"BSTAR":0.00049393403,"MEAN_MOTION_DOT":8.085e-5,"MEAN_MOTION_DDOT":0}]
